INTELSAT 11         [PM]
1 32253C 07044B   22068.90668982 -.00000178  00000-0  00000-0 0   680
2 32253   0.0104 112.7999 0001876 227.8090 110.3407  1.00274022    15
HORIZONS-2              
1 32388C 07063B   22062.00000000 -.00000092  00000-0  00000-0 0   625
2 32388   0.0164 105.6429 0002738 239.8992 260.0337  1.00272293    14
HORIZONS-2              
1 32388C 07063B   22066.00000000 -.00000092  00000-0  00000-0 0   663
2 32388   0.0001 214.4282 0002976 121.9653 273.1236  1.00272673    14
HORIZONS-2          [PM]
1 32388C 07063B   22066.76582176  .00000044  00000-0  00000-0 0   661
2 32388   0.0000 171.8699 0002982 165.6423 188.4569  1.00272329    13
GALAXY 18               
1 32951C 08024A   22062.00000000  .00000084  00000-0  00000-0 0   629
2 32951   0.0030 178.5288 0002714 168.2982  50.8997  1.00270566    10
GALAXY 18               
1 32951C 08024A   22066.00000000  .00000108  00000-0  00000-0 0   664
2 32951   0.0004 147.7916 0002957 201.0343  52.8431  1.00272365    17
GALAXY 18           [PM]
1 32951C 08024A   22068.61666667  .00000115  00000-0  00000-0 0   680
2 32951   0.0089 118.8397 0003030 233.1776 274.2421  1.00271850    18
INTELSAT 25         [PM]
1 33153C 08034A   22061.39026620 -.00000134  00000-0  00000-0 0   618
2 33153   0.0211 205.4591 0002670 155.3877 268.2790  1.00271605    15
INTELSAT 25             
1 33153C 08034A   22062.00000000 -.00000134  00000-0  00000-0 0   622
2 33153   0.0194 203.4256 0002684 155.9391 129.8669  1.00271698    12
INTELSAT 25             
1 33153C 08034A   22066.00000000 -.00000134  00000-0  00000-0 0   660
2 33153   0.0094 176.2313 0002977 185.1334 131.8107  1.00271744    11
GALAXY 19               
1 33376C 08045A   22062.00000000 -.00000049  00000-0  00000-0 0   626
2 33376   0.0093 129.3812 0002828 213.3246  81.0039  1.00273039    10
GALAXY 19               
1 33376C 08045A   22066.00000000 -.00000049  00000-0  00000-0 0   664
2 33376   0.0209 250.7737 0002848  93.0354  83.8542  1.00273562    19
GALAXY 19           [PM]
1 33376C 08045A   22067.62986111 -.00000049  00000-0  00000-0 0   670
2 33376   0.0159 244.3150 0002928 101.1537 310.5705  1.00271911    11
INTELSAT 14             
1 36097C 09064A   22062.00000000 -.00000194  00000-0  00000-0 0   622
2 36097   0.0076 197.1039 0002198 152.3874 126.2038  1.00273769    18
INTELSAT 14             
1 36097C 09064A   22066.00000000 -.00000240  00000-0  00000-0 0   662
2 36097   0.0000 162.7191 0002442 187.4883 129.4579  1.00273398    16
INTELSAT 14         [PM]
1 36097C 09064A   22068.88998843 -.00000183  00000-0  00000-0 0   689
2 36097   0.0068 123.9553 0002484 228.6703  90.2966  1.00273555    16
INTELSAT 15             
1 36106C 09067A   22062.00000000 -.00000074  00000-0  00000-0 0   623
2 36106   0.0001 162.8510 0002171 186.6238 256.3870  1.00272404    19
INTELSAT 15             
1 36106C 09067A   22066.00000000 -.00000095  00000-0  00000-0 0   664
2 36106   0.0151  90.7398 0002365 257.0575 262.0208  1.00272560    12
INTELSAT 15         [PM]
1 36106C 09067A   22066.59245370 -.00000096  00000-0  00000-0 0   660
2 36106   0.0316 297.8513 0002422  50.1251 115.7096  1.00272003    12
INTELSAT 16             
1 36397C 10006A   22062.00000000 -.00000151  00000-0  00000-0 0   626
2 36397   0.0068 116.1780 0001779 237.3804  90.9618  1.00272374    19
INTELSAT 16             
1 36397C 10006A   22066.00000000 -.00000155  00000-0  00000-0 0   668
2 36397   0.0212  93.9192 0002023 258.5584  95.9916  1.00271951    18
INTELSAT 16         [PM]
1 36397C 10006A   22066.04731482 -.00000157  00000-0  00000-0 0   669
2 36397   0.0360 304.1278 0002082  47.6994 113.7213  1.00272718    12
INTELSAT 17             
1 37238C 10065B   22062.00000000  .00000089  00000-0  00000-0 0   625
2 37238   0.0229 190.9915 0002601 159.9054 235.8235  1.00273735    11
INTELSAT 17             
1 37238C 10065B   22066.00000000  .00000089  00000-0  00000-0 0   663
2 37238   0.0251 216.3541 0002684 130.8584 243.4460  1.00272210    13
INTELSAT 17         [PM]
1 37238C 10065B   22066.60641204  .00000089  00000-0  00000-0 0   666
2 37238   0.0230 212.2199 0002717 134.7118 102.6332  1.00272236    19
INTELSAT NEW DAWN       
1 37392C 11016A   22062.00000000  .00000246  00000-0  00000-0 0   628
2 37392   0.0183 193.7237 0001663 272.3222  87.4667  1.00272704    18
INTELSAT NEW DAWN       
1 37392C 11016A   22066.00000000  .00000246  00000-0  00000-0 0   666
2 37392   0.0110 173.1193 0001316 271.6756 112.6873  1.00270391    10
INTELSAT NEW DAWN   [PM]
1 37392C 11016A   22066.42983796  .00000246  00000-0  00000-0 0   664
2 37392   0.0106 170.1711 0001301 276.1626 266.3121  1.00270332    16
INTELSAT 18             
1 37834C 11056A   22062.00000000  .00000448  00000-0  00000-0 0   627
2 37834   0.0262  35.0915 0001655 305.3656   0.2606  1.00270327    12
INTELSAT 18             
1 37834C 11056A   22066.00000000  .00000195  00000-0  00000-0 0   664
2 37834   0.0237  35.5933 0001916 303.1318   5.9380  1.00273494    19
INTELSAT 18         [PM]
1 37834C 11056A   22067.73159722  .00000124  00000-0  00000-0 0   674
2 37834   0.0123  51.1525 0001985 284.4117 274.1943  1.00270647    10
INTELSAT 22             
1 38098C 12011A   22062.00000000  .00000032  00000-0  00000-0 0   621
2 38098   0.0055 187.0352 0002636 158.7416 247.0425  1.00271180    10
INTELSAT 22             
1 38098C 12011A   22066.00000000  .00000030  00000-0  00000-0 0   667
2 38098   0.0004 154.1033 0002842 191.1076 251.5546  1.00272495    11
INTELSAT 22         [PM]
1 38098C 12011A   22068.05432870  .00000032  00000-0  00000-0 0   682
2 38098   0.0060 128.4981 0002881 217.7493 272.1075  1.00272342    17
INTELSAT 19             
1 38356C 12030A   22062.00000000  .00000034  00000-0  00000-0 0   621
2 38356   0.0087 130.6681 0002742 215.2436 340.8089  1.00271089    16
INTELSAT 19             
1 38356C 12030A   22066.00000000  .00000033  00000-0  00000-0 0   668
2 38356   0.0215 252.2602 0002961  94.2979 344.1107  1.00272756    13
INTELSAT 19         [PM]
1 38356C 12030A   22068.82935185  .00000034  00000-0  00000-0 0   684
2 38356   0.0010 200.0338 0003027 147.4072 284.5942  1.00271476    14
INTELSAT 20             
1 38740C 12043A   22062.00000000  .00000066  00000-0  00000-0 0   627
2 38740   0.0155 147.3244 0001688  44.6956  37.2051  1.00271153    16
INTELSAT 20         [PM]
1 38740C 12043A   22062.00555556  .00000066  00000-0  00000-0 0   628
2 38740   0.0163 128.6381 0001697  53.4008  49.1875  1.00272108    12
INTELSAT 20             
1 38740C 12043A   22066.00000000  .00000066  00000-0  00000-0 0   665
2 38740   0.0124 148.4706 0001678  57.3974  27.2973  1.00271018    19
INTELSAT 21             
1 38749C 12045A   22062.00000000 -.00000193  00000-0  00000-0 0   620
2 38749   0.0111 209.9217 0001673 134.2862 118.5059  1.00269553    10
INTELSAT 21             
1 38749C 12045A   22066.00000000 -.00000248  00000-0  00000-0 0   669
2 38749   0.0000 179.5620 0002118 161.1371 125.9717  1.00272385    16
INTELSAT 21         [PM]
1 38749C 12045A   22068.91928241 -.00000195  00000-0  00000-0 0   680
2 38749   0.0042 124.6340 0002184 217.6557  98.2028  1.00273274    13
INTELSAT 23             
1 38867C 12057A   22062.00000000 -.00000193  00000-0  00000-0 0   624
2 38867   0.0145 166.3621 0000876 151.6020 149.7697  1.00270549    17
INTELSAT 23             
1 38867C 12057A   22066.00000000 -.00000194  00000-0  00000-0 0   663
2 38867   0.0110 174.9220 0001042 118.7336 178.0159  1.00272913    14
INTELSAT 23         [PM]
1 38867C 12057A   22066.58625000 -.00000195  00000-0  00000-0 0   660
2 38867   0.0106 169.8535 0001012 124.5496  28.8982  1.00272620    11
INTELSAT 30         [PM]
1 40271C 14062A   22061.12569444 -.00000180  00000-0  00000-0 0   613
2 40271   0.0488 320.6634 0002373 149.5002 359.8894  1.00272473    19
INTELSAT 30             
1 40271C 14062A   22062.00000000 -.00000065  00000-0  00000-0 0   622
2 40271   0.0000 163.8576 0002212 320.6937 301.1148  1.00270788    11
INTELSAT 30             
1 40271C 14062A   22066.00000000 -.00000128  00000-0  00000-0 0   660
2 40271   0.0000 191.5346 0001787 297.2743 300.8111  1.00271191    19
INTELSAT 34             
1 40874C 15039A   22062.00000000 -.00000225  00000-0  00000-0 0   624
2 40874   0.0361 279.1242 0000795 280.3152 265.7801  1.00268582    16
INTELSAT 34         [PM]
1 40874C 15039A   22062.31982639 -.00000203  00000-0  00000-0 0   621
2 40874   0.0447 292.6566 0000844 258.0996  29.9091  1.00273521    13
INTELSAT 34             
1 40874C 15039A   22066.00000000 -.00000210  00000-0  00000-0 0   666
2 40874   0.0432 324.4983 0000752 258.8821 245.7918  1.00271603    12
INTELSAT 31         [PM]
1 41581C 16035A   22059.88739583 -.00000061  00000-0  00000-0 0   598
2 41581   0.0118 163.7089 0002027  43.4250 175.9158  1.00271357    17
INTELSAT 31             
1 41581C 16035A   22062.00000000 -.00000061  00000-0  00000-0 0   625
2 41581   0.0116 159.6753 0002061  51.0073 214.9870  1.00271454    16
INTELSAT 31             
1 41581C 16035A   22066.00000000 -.00000061  00000-0  00000-0 0   663
2 41581   0.0083 165.7804 0002090  55.7983 208.0396  1.00271021    14
INTELSAT 36             
1 41747C 16053A   22062.00000000  .00000075  00000-0  00000-0 0   623
2 41747   0.0001 121.7336 0001138 235.6535 231.8379  1.00270815    19
INTELSAT 36         [PM]
1 41747C 16053A   22062.33115741  .00000027  00000-0  00000-0 0   625
2 41747   0.0465 331.8407 0001306  17.4618 359.4619  1.00271690    17
INTELSAT 36             
1 41747C 16053A   22066.00000000  .00000049  00000-0  00000-0 0   662
2 41747   0.0001 103.3188 0001482 239.2407 250.6074  1.00271048    10
INTELSAT 33E            
1 41748C 16053B   22062.00000000  .00000139  00000-0  00000-0 0   625
2 41748   0.0291  23.2501 0001339 329.7019 227.7535  1.00271831    13
